NORAD_CAT_ID,OBJECT_NAME,OBJECT_TYPE,EPOCH,MEAN_MOTION,ECCENTRICITY,INCLINATION,RA_OF_ASC_NODE,ARG_OF_PERICENTER,MEAN_ANOMALY,BSTAR,MEAN_MOTION_DOT,MEAN_MOTION_DDOT,TLE_LINE0,TLE_LINE1,TLE_LINE2,SEMIMAJOR_AXIS,PERIOD,APOGEE,PERIGEE,DECAYED
53923.0,STARLINK-5004,PAYLOAD,2023-09-20 16:01:55,15.08824495,0.0001171,53.2185,38.7906,99.1821,260.9304,-8.9056e-05,-1.704e-05,0.0,0 STARLINK-5004,1 53923U 22119AP  23263.66799960 -.00001704  00000-0 -89056-4 0  9991,2 53923  53.2185  38.7906 0001171  99.1821 260.9304 15.08824495 55809,6917.928,95.439,540.603,538.983,0.0
53923.0,STARLINK-5004,PAYLOAD,2023-09-21 09:31:09,15.08840153,0.0001093,53.218,35.5181,99.4776,260.634,1.065e-05,-1.18e-06,0.0,0 STARLINK-5004,1 53923U 22119AP  23264.39663548 -.00000118  00000-0  10650-4 0  9995,2 53923  53.2180  35.5181 0001093  99.4776 260.6340 15.08840153 55490,6917.88,95.438,540.501,538.989,0.0
53923.0,STARLINK-5004,PAYLOAD,2023-09-21 12:41:55,15.08845365,0.0001124,53.2183,34.9244,101.0318,259.0801,9.0452e-05,1.152e-05,0.0,0 STARLINK-5004,1 53923U 22119AP  23264.52911260  .00001152  00000-0  90452-4 0  9993,2 53923  53.2183  34.9244 0001124 101.0318 259.0801 15.08845365 55936,6917.864,95.437,540.507,538.951,0.0
53923.0,STARLINK-5004,PAYLOAD,2023-09-21 14:17:18,15.08848485,0.0001181,53.2179,34.6269,101.0306,259.0819,0.00015154,2.125e-05,0.0,0 STARLINK-5004,1 53923U 22119AP  23264.59535130  .00002125  00000-0  15154-3 0  9994,2 53923  53.2179  34.6269 0001181 101.0306 259.0819 15.08848485 55525,6917.854,95.437,540.536,538.902,0.0
53923.0,STARLINK-5004,PAYLOAD,2023-09-22 09:21:56,15.08843686,0.0001617,53.2209,31.0611,107.1066,253.0104,0.00031264,4.692e-05,0.0,0 STARLINK-5004,1 53923U 22119AP  23265.39023517  .00004692  00000-0  31264-3 0  9995,2 53923  53.2209  31.0611 0001617 107.1066 253.0104 15.08843686 55647,6917.869,95.437,540.853,538.616,0.0
53923.0,STARLINK-5004,PAYLOAD,2023-09-22 12:32:42,15.08842135,0.0001428,53.2201,30.4662,107.6863,252.4285,0.00021759,3.177e-05,0.0,0 STARLINK-5004,1 53923U 22119AP  23265.52271514  .00003177  00000-0  21759-3 0  9997,2 53923  53.2201  30.4662 0001428 107.6863 252.4285 15.08842135 56088,6917.874,95.437,540.727,538.751,0.0
53923.0,STARLINK-5004,PAYLOAD,2023-09-22 14:08:05,15.08841015,0.0001335,53.2204,30.1689,102.6788,257.4353,0.00027065,4.022e-05,0.0,0 STARLINK-5004,1 53923U 22119AP  23265.58895634  .00004022  00000-0  27065-3 0  9994,2 53923  53.2204  30.1689 0001335 102.6788 257.4353 15.08841015 56093,6917.877,95.437,540.666,538.819,0.0
53923.0,STARLINK-5004,PAYLOAD,2023-09-23 12:23:29,15.08843622,0.0001298,53.2174,26.0038,100.1745,259.9394,-2.4686e-05,-6.81e-06,0.0,0 STARLINK-5004,1 53923U 22119AP  23266.51631151 -.00000681  00000-0 -24686-4 0  9996,2 53923  53.2174  26.0038 0001298 100.1745 259.9394 15.08843622 55812,6917.869,95.437,540.632,538.836,0.0
53923.0,STARLINK-5004,PAYLOAD,2023-09-24 13:49:39,15.08845133,0.0001293,53.2178,21.2466,80.3676,279.7463,8.4933e-05,1.064e-05,0.0,0 STARLINK-5004,1 53923U 22119AP  23267.57615097  .00001064  00000-0  84933-4 0  9999,2 53923  53.2178  21.2466 0001293  80.3676 279.7463 15.08845133 56395,6917.865,95.437,540.624,538.835,0.0
53923.0,STARLINK-5004,PAYLOAD,2023-09-24 15:25:02,15.08847288,0.0001257,53.2179,20.949,81.0602,279.0532,0.00011914,1.609e-05,0.0,0 STARLINK-5004,1 53923U 22119AP  23267.64238968  .00001609  00000-0  11914-3 0  9998,2 53923  53.2179  20.9490 0001257  81.0602 279.0532 15.08847288 55983,6917.858,95.437,540.593,538.854,0.0
53923.0,STARLINK-5004,PAYLOAD,2023-09-25 07:18:54,15.08842028,0.0001086,53.2179,17.9785,88.8094,271.3022,0.00010633,1.405e-05,0.0,0 STARLINK-5004,1 53923U 22119AP  23268.30479182  .00001405  00000-0  10633-3 0  9998,2 53923  53.2179  17.9785 0001086  88.8094 271.3022 15.08842028 56084,6917.874,95.437,540.49,538.988,0.0
53923.0,STARLINK-5004,PAYLOAD,2023-09-25 13:40:26,15.08847945,0.0001352,53.218,16.79,70.4053,289.7085,7.387e-05,8.88e-06,0.0,0 STARLINK-5004,1 53923U 22119AP  23268.56974962  .00000888  00000-0  73870-4 0  9999,2 53923  53.2180  16.7900 0001352  70.4053 289.7085 15.08847945 56546,6917.856,95.437,540.656,538.786,0.0
53923.0,STARLINK-5004,PAYLOAD,2023-09-26 10:20:28,15.0883677,0.0001334,53.2193,12.9196,104.9017,255.2123,-3.1497e-05,-7.89e-06,0.0,0 STARLINK-5004,1 53923U 22119AP  23269.43088013 -.00000789  00000-0 -31497-4 0  9990,2 53923  53.2193  12.9196 0001334 104.9017 255.2123 15.08836770 56251,6917.89,95.438,540.678,538.832,0.0
53923.0,STARLINK-5004,PAYLOAD,2023-09-26 13:31:14,15.08834764,0.0001238,53.2185,12.3243,92.5768,267.5366,-4.0007e-05,-9.24e-06,0.0,0 STARLINK-5004,1 53923U 22119AP  23269.56335929 -.00000924  00000-0 -40007-4 0  9993,2 53923  53.2185  12.3243 0001238  92.5768 267.5366 15.08834764 56691,6917.896,95.438,540.618,538.905,0.0
53923.0,STARLINK-5004,PAYLOAD,2023-09-26 16:42:00,15.088376,0.0001209,53.2182,11.7274,100.0885,260.0243,6.6489e-07,-2.77e-06,0.0,0 STARLINK-5004,1 53923U 22119AP  23269.69583778 -.00000277  00000-0  66489-6 0  9998,2 53923  53.2182  11.7274 0001209 100.0885 260.0243 15.08837600 56715,6917.888,95.438,540.589,538.916,0.0
53923.0,STARLINK-5004,PAYLOAD,2023-09-27 10:11:14,15.08852831,0.0002071,53.2172,8.4589,83.3686,276.7542,-0.00015037,-2.682e-05,0.0,0 STARLINK-5004,1 53923U 22119AP  23270.42447393 -.00002682  00000-0 -15037-3 0  9996,2 53923  53.2172   8.4589 0002071  83.3686 276.7542 15.08852831 56401,6917.841,95.437,541.139,538.273,0.0
53923.0,STARLINK-5004,PAYLOAD,2023-09-27 13:22:00,15.08855031,0.0001323,53.2176,7.8651,78.5291,281.585,7.5557e-05,9.15e-06,0.0,0 STARLINK-5004,1 53923U 22119AP  23270.55695244  .00000915  00000-0  75557-4 0  9999,2 53923  53.2176   7.8651 0001323  78.5291 281.5850 15.08855031 56844,6917.834,95.437,540.615,538.784,0.0
53923.0,STARLINK-5004,PAYLOAD,2023-09-28 11:37:25,15.08838642,0.0001354,53.2184,3.7021,77.4264,282.6879,7.3686e-05,8.85e-06,0.0,0 STARLINK-5004,1 53923U 22119AP  23271.48432245  .00000885  00000-0  73686-4 0  9999,2 53923  53.2184   3.7021 0001354  77.4264 282.6879 15.08838642 56562,6917.885,95.438,540.686,538.813,0.0
53923.0,STARLINK-5004,PAYLOAD,2023-09-28 16:23:34,15.08844383,0.000151,53.2183,2.8092,71.6018,288.5138,0.00018122,2.598e-05,0.0,0 STARLINK-5004,1 53923U 22119AP  23271.68304032  .00002598  00000-0  18122-3 0  9999,2 53923  53.2183   2.8092 0001510  71.6018 288.5138 15.08844383 57019,6917.867,95.437,540.777,538.687,0.0
53923.0,STARLINK-5004,PAYLOAD,2023-09-29 11:28:12,15.0884528,0.0001537,53.2182,359.2413,90.8004,269.3165,3.9774e-05,3.45e-06,0.0,0 STARLINK-5004,1 53923U 22119AP  23272.47791868  .00000345  00000-0  39774-4 0  9999,2 53923  53.2182 359.2413 0001537  90.8004 269.3165 15.08845280 57138,6917.864,95.437,540.793,538.666,0.0
53923.0,STARLINK-5004,PAYLOAD,2023-09-30 11:18:58,15.08853248,0.0001522,53.2186,354.7823,83.2318,276.8847,0.00018715,2.693e-05,0.0,0 STARLINK-5004,1 53923U 22119AP  23273.47151475  .00002693  00000-0  18715-3 0  9993,2 53923  53.2186 354.7823 0001522  83.2318 276.8847 15.08853248 56867,6917.84,95.437,540.758,538.652,0.0
53923.0,STARLINK-5004,PAYLOAD,2023-09-30 14:29:44,15.08863362,0.0001611,53.2182,354.1867,98.0352,262.0823,0.00024376,3.596e-05,0.0,0 STARLINK-5004,1 53923U 22119AP  23273.60398924  .00003596  00000-0  24376-3 0  9993,2 53923  53.2182 354.1867 0001611  98.0352 262.0823 15.08863362 56887,6917.809,95.436,540.788,538.56,0.0
53923.0,STARLINK-5004,PAYLOAD,2023-10-01 00:02:03,15.08848895,0.0001952,53.2194,352.4041,126.7353,233.3819,0.00012229,1.659e-05,0.0,0 STARLINK-5004,1 53923U 22119AP  23274.00143271  .00001659  00000-0  12229-3 0  9993,2 53923  53.2194 352.4041 0001952 126.7353 233.3819 15.08848895 56940,6917.853,95.437,541.069,538.368,0.0
53923.0,STARLINK-5004,PAYLOAD,2023-10-01 12:45:08,15.08850359,0.0001584,53.217,350.025,93.6519,266.4655,0.00014226,1.977e-05,0.0,0 STARLINK-5004,1 53923U 22119AP  23274.53135298  .00001977  00000-0  14226-3 0  9993,2 53923  53.2170 350.0250 0001584  93.6519 266.4655 15.08850359 57446,6917.849,95.437,540.81,538.618,0.0
53923.0,STARLINK-5004,PAYLOAD,2023-10-01 14:20:31,15.08852916,0.0001719,53.2174,349.7267,95.4039,264.7149,0.00023394,3.438e-05,0.0,0 STARLINK-5004,1 53923U 22119AP  23274.59759208  .00003438  00000-0  23394-3 0  9992,2 53923  53.2174 349.7267 0001719  95.4039 264.7149 15.08852916 57451,6917.841,95.437,540.895,538.517,0.0
53923.0,STARLINK-5004,PAYLOAD,2023-10-01 22:17:27,15.08836762,0.0001974,53.2173,348.2426,85.7053,274.4165,-3.0287e-05,-7.7e-06,0.0,0 STARLINK-5004,1 53923U 22119AP  23274.92879599 -.00000770  00000-0 -30287-4 0  9993,2 53923  53.2173 348.2426 0001974  85.7053 274.4165 15.08836762 57088,6917.89,95.438,541.121,538.39,0.0
53923.0,STARLINK-5004,PAYLOAD,2023-10-02 12:35:56,15.08837028,0.000179,53.2164,345.566,84.6626,275.457,-1.9361e-06,-3.19e-06,0.0,0 STARLINK-5004,1 53923U 22119AP  23275.52496010 -.00000319  00000-0 -19361-5 0  9993,2 53923  53.2164 345.5660 0001790  84.6626 275.4570 15.08837028 57591,6917.889,95.438,540.993,538.516,0.0
53923.0,STARLINK-5004,PAYLOAD,2023-10-03 04:29:48,15.08839126,0.0001727,53.2152,342.5915,78.2594,281.8592,0.00023929,3.522e-05,0.0,0 STARLINK-5004,1 53923U 22119AP  23276.18736418  .00003522  00000-0  23929-3 0  9995,2 53923  53.2152 342.5915 0001727  78.2594 281.8592 15.08839126 57272,6917.883,95.438,540.943,538.553,0.0
53923.0,STARLINK-5004,PAYLOAD,2023-10-03 10:51:20,15.08843203,0.0001572,53.216,341.4008,89.6399,270.4773,0.00037573,5.697e-05,0.0,0 STARLINK-5004,1 53923U 22119AP  23276.45232350  .00005697  00000-0  37573-3 0  9996,2 53923  53.2160 341.4008 0001572  89.6399 270.4773 15.08843203 57736,6917.871,95.437,540.823,538.648,0.0
53923.0,STARLINK-5004,PAYLOAD,2023-10-04 10:42:07,15.08845472,0.0001502,53.2165,336.9408,94.1586,265.9577,0.00029017,4.334e-05,0.0,0 STARLINK-5004,1 53923U 22119AP  23277.44592288  .00004334  00000-0  29017-3 0  9996,2 53923  53.2165 336.9408 0001502  94.1586 265.9577 15.08845472 57467,6917.864,95.437,540.768,538.69,0.0
